STARLINK-32615          
1 62034U 24216C   25332.66335912  .00030392  00000+0  11092-2 0  9991
2 62034  42.9989 106.9800 0001414 267.6624  92.4065 15.27584443 57264
STARLINK-32592          
1 62035U 24216D   25333.07910397  .00026386  00000+0  96405-3 0  9994
2 62035  42.9975 111.8599 0002722 279.6699  80.3845 15.27608832 58417
STARLINK-32225          
1 62036U 24216E   25333.05952902  .00023498  00000+0  86032-3 0  9997
2 62036  42.9919 104.7936 0000612 359.2176   0.8675 15.27594037 58557
STARLINK-32595          
1 62037U 24216F   25332.80599639  .00037098  00000+0  13486-2 0  9997
2 62037  43.0056 113.2554 0004171 282.5422  77.4963 15.27629074 58379
STARLINK-32477          
1 62038U 24216G   25332.64455551  .00027629  00000+0  10089-2 0  9999
2 62038  42.9958 103.3817 0000825 137.4633 222.6283 15.27607544 57304
STARLINK-32480          
1 62039U 24216H   25333.06209382  .00012355  00000+0  45781-3 0  9994
2 62039  42.9986 104.8106 0001027 307.1314  52.9444 15.27573717 57329
STARLINK-32510          
1 62040U 24216J   25333.09324919  .00041097  00000+0  14946-2 0  9996
2 62040  42.9989 111.9679 0001223 283.0061  77.0654 15.27581143 58400
STARLINK-32456          
1 62041U 24216K   25333.06594547  .00013836  00000+0  51132-3 0  9999
2 62041  42.9986 104.8416 0001132 300.7149  59.3590 15.27583922 58488
STARLINK-32509          
1 62042U 24216L   25332.65691383  .00047433  00000+0  17188-2 0  9992
2 62042  42.9970 106.9323 0001539 281.4199  78.6480 15.27643010 58424
STARLINK-32491          
1 62043U 24216M   25333.08938840  .00030258  00000+0  11038-2 0  9998
2 62043  42.9983 111.9383 0001713 275.0415  85.0241 15.27602188 58401
STARLINK-32577          
1 62044U 24216N   25332.40597472  .00030104  00000+0  10982-2 0  9993
2 62044  43.0009 115.4084 0001368 270.3911  89.6784 15.27603803 58312
STARLINK-32618          
1 62045U 24216P   25332.79925638  .00032838  00000+0  11965-2 0  9993
2 62045  42.9993 106.2772 0001720 273.2146  86.8509 15.27606900 58448
STARLINK-32598          
1 62046U 24216Q   25333.07607873  .00032228  00000+0  11750-2 0  9999
2 62046  43.0013 104.0575 0000867 271.9042  88.1710 15.27595240 58490
STARLINK-32630          
1 62047U 24216R   25332.67908354  .00039353  00000+0  14293-2 0  9994
2 62047  43.0001 114.0180 0001452 253.0368 107.0325 15.27639971 58341
STARLINK-32599          
1 62048U 24216S   25333.07525661  .00023660  00000+0  86625-3 0  9999
2 62048  42.9955 111.8272 0002054 274.2661  85.7956 15.27590648 58401
STARLINK-32473          
1 62049U 24216T   25332.79026171  .00031556  00000+0  11505-2 0  9997
2 62049  43.0000 106.2097 0001817 276.9215  83.1430 15.27604222 57286
