[{"OBJECT_NAME":"STARLINK-32615","OBJECT_ID":"2024-216C","EPOCH":"2025-11-28T15:55:14.227968","MEAN_MOTION":15.27584443,"ECCENTRICITY":0.00014142,"INCLINATION":42.9989,"RA_OF_ASC_NODE":106.98,"ARG_OF_PERICENTER":267.6624,"MEAN_ANOMALY":92.4065,"EPHEMERIS_TYPE":0,"CLASSIFICATION_TYPE":"U","NORAD_CAT_ID":62034,"ELEMENT_SET_NO":999,"REV_AT_EPOCH":5726,"BSTAR":0.0011092281,"MEAN_MOTION_DOT":0.00030392,"MEAN_MOTION_DDOT":0},{"OBJECT_NAME":"STARLINK-32592","OBJECT_ID":"2024-216D","EPOCH":"2025-11-29T01:53:54.583008","MEAN_MOTION":15.27608832,"ECCENTRICITY":0.0002722,"INCLINATION":42.9975,"RA_OF_ASC_NODE":111.8599,"ARG_OF_PERICENTER":279.6699,"MEAN_ANOMALY":80.3845,"EPHEMERIS_TYPE":0,"CLASSIFICATION_TYPE":"U","NORAD_CAT_ID":62035,"ELEMENT_SET_NO":999,"REV_AT_EPOCH":5841,"BSTAR":0.00096405,"MEAN_MOTION_DOT":0.00026386,"MEAN_MOTION_DDOT":0},{"OBJECT_NAME":"STARLINK-32225","OBJECT_ID":"2024-216E","EPOCH":"2025-11-29T01:25:43.307328","MEAN_MOTION":15.27594037,"ECCENTRICITY":6.12e-5,"INCLINATION":42.9919,"RA_OF_ASC_NODE":104.7936,"ARG_OF_PERICENTER":359.2176,"MEAN_ANOMALY":0.8675,"EPHEMERIS_TYPE":0,"CLASSIFICATION_TYPE":"U","NORAD_CAT_ID":62036,"ELEMENT_SET_NO":999,"REV_AT_EPOCH":5855,"BSTAR":0.00086032,"MEAN_MOTION_DOT":0.00023498,"MEAN_MOTION_DDOT":0},{"OBJECT_NAME":"STARLINK-32595","OBJECT_ID":"2024-216F","EPOCH":"2025-11-28T19:20:38.088096","MEAN_MOTION":15.27629074,"ECCENTRICITY":0.0004171,"INCLINATION":43.0056,"RA_OF_ASC_NODE":113.2554,"ARG_OF_PERICENTER":282.5422,"MEAN_ANOMALY":77.4963,"EPHEMERIS_TYPE":0,"CLASSIFICATION_TYPE":"U","NORAD_CAT_ID":62037,"ELEMENT_SET_NO":999,"REV_AT_EPOCH":5837,"BSTAR":0.0013486,"MEAN_MOTION_DOT":0.00037098,"MEAN_MOTION_DDOT":0},{"OBJECT_NAME":"STARLINK-32477","OBJECT_ID":"2024-216G","EPOCH":"2025-11-28T15:28:09.596064","MEAN_MOTION":15.27607544,"ECCENTRICITY":8.254e-5,"INCLINATION":42.9958,"RA_OF_ASC_NODE":103.3817,"ARG_OF_PERICENTER":137.4633,"MEAN_ANOMALY":222.6283,"EPHEMERIS_TYPE":0,"CLASSIFICATION_TYPE":"U","NORAD_CAT_ID":62038,"ELEMENT_SET_NO":999,"REV_AT_EPOCH":5730,"BSTAR":0.0010089298,"MEAN_MOTION_DOT":0.00027629,"MEAN_MOTION_DDOT":0},{"OBJECT_NAME":"STARLINK-32480","OBJECT_ID":"2024-216H","EPOCH":"2025-11-29T01:29:24.906048","MEAN_MOTION":15.27573717,"ECCENTRICITY":0.0001027,"INCLINATION":42.9986,"RA_OF_ASC_NODE":104.8106,"ARG_OF_PERICENTER":307.1314,"MEAN_ANOMALY":52.9444,"EPHEMERIS_TYPE":0,"CLASSIFICATION_TYPE":"U","NORAD_CAT_ID":62039,"ELEMENT_SET_NO":999,"REV_AT_EPOCH":5732,"BSTAR":0.00045781,"MEAN_MOTION_DOT":0.00012355,"MEAN_MOTION_DDOT":0},{"OBJECT_NAME":"STARLINK-32510","OBJECT_ID":"2024-216J","EPOCH":"2025-11-29T02:14:16.730016","MEAN_MOTION":15.27581143,"ECCENTRICITY":0.0001223,"INCLINATION":42.9989,"RA_OF_ASC_NODE":111.9679,"ARG_OF_PERICENTER":283.0061,"MEAN_ANOMALY":77.0654,"EPHEMERIS_TYPE":0,"CLASSIFICATION_TYPE":"U","NORAD_CAT_ID":62040,"ELEMENT_SET_NO":999,"REV_AT_EPOCH":5840,"BSTAR":0.0014946,"MEAN_MOTION_DOT":0.00041097,"MEAN_MOTION_DDOT":0},{"OBJECT_NAME":"STARLINK-32456","OBJECT_ID":"2024-216K","EPOCH":"2025-11-29T01:34:57.688608","MEAN_MOTION":15.27583922,"ECCENTRICITY":0.0001132,"INCLINATION":42.9986,"RA_OF_ASC_NODE":104.8416,"ARG_OF_PERICENTER":300.7149,"MEAN_ANOMALY":59.359,"EPHEMERIS_TYPE":0,"CLASSIFICATION_TYPE":"U","NORAD_CAT_ID":62041,"ELEMENT_SET_NO":999,"REV_AT_EPOCH":5848,"BSTAR":0.00051132,"MEAN_MOTION_DOT":0.00013836,"MEAN_MOTION_DDOT":0},{"OBJECT_NAME":"STARLINK-32509","OBJECT_ID":"2024-216L","EPOCH":"2025-11-28T15:45:57.354912","MEAN_MOTION":15.2764301,"ECCENTRICITY":0.00015391,"INCLINATION":42.997,"RA_OF_ASC_NODE":106.9323,"ARG_OF_PERICENTER":281.4199,"MEAN_ANOMALY":78.648,"EPHEMERIS_TYPE":0,"CLASSIFICATION_TYPE":"U","NORAD_CAT_ID":62042,"ELEMENT_SET_NO":999,"REV_AT_EPOCH":5842,"BSTAR":0.0017188247,"MEAN_MOTION_DOT":0.00047433,"MEAN_MOTION_DDOT":0},{"OBJECT_NAME":"STARLINK-32491","OBJECT_ID":"2024-216M","EPOCH":"2025-11-29T02:08:43.157760","MEAN_MOTION":15.27602188,"ECCENTRICITY":0.0001713,"INCLINATION":42.9983,"RA_OF_ASC_NODE":111.9383,"ARG_OF_PERICENTER":275.0415,"MEAN_ANOMALY":85.0241,"EPHEMERIS_TYPE":0,"CLASSIFICATION_TYPE":"U","NORAD_CAT_ID":62043,"ELEMENT_SET_NO":999,"REV_AT_EPOCH":5840,"BSTAR":0.0011038,"MEAN_MOTION_DOT":0.00030258,"MEAN_MOTION_DDOT":0},{"OBJECT_NAME":"STARLINK-32577","OBJECT_ID":"2024-216N","EPOCH":"2025-11-28T09:44:36.215808","MEAN_MOTION":15.27603803,"ECCENTRICITY":0.00013686,"INCLINATION":43.0009,"RA_OF_ASC_NODE":115.4084,"ARG_OF_PERICENTER":270.3911,"MEAN_ANOMALY":89.6784,"EPHEMERIS_TYPE":0,"CLASSIFICATION_TYPE":"U","NORAD_CAT_ID":62044,"ELEMENT_SET_NO":999,"REV_AT_EPOCH":5831,"BSTAR":0.0010982084,"MEAN_MOTION_DOT":0.00030104,"MEAN_MOTION_DDOT":0},{"OBJECT_NAME":"STARLINK-32618","OBJECT_ID":"2024-216P","EPOCH":"2025-11-28T19:10:55.751232","MEAN_MOTION":15.276069,"ECCENTRICITY":0.000172,"INCLINATION":42.9993,"RA_OF_ASC_NODE":106.2772,"ARG_OF_PERICENTER":273.2146,"MEAN_ANOMALY":86.8509,"EPHEMERIS_TYPE":0,"CLASSIFICATION_TYPE":"U","NORAD_CAT_ID":62045,"ELEMENT_SET_NO":999,"REV_AT_EPOCH":5844,"BSTAR":0.0011965,"MEAN_MOTION_DOT":0.00032838,"MEAN_MOTION_DDOT":0},{"OBJECT_NAME":"STARLINK-32598","OBJECT_ID":"2024-216Q","EPOCH":"2025-11-29T01:49:33.202272","MEAN_MOTION":15.2759524,"ECCENTRICITY":8.67e-5,"INCLINATION":43.0013,"RA_OF_ASC_NODE":104.0575,"ARG_OF_PERICENTER":271.9042,"MEAN_ANOMALY":88.171,"EPHEMERIS_TYPE":0,"CLASSIFICATION_TYPE":"U","NORAD_CAT_ID":62046,"ELEMENT_SET_NO":999,"REV_AT_EPOCH":5849,"BSTAR":0.001175,"MEAN_MOTION_DOT":0.00032228,"MEAN_MOTION_DDOT":0},{"OBJECT_NAME":"STARLINK-32630","OBJECT_ID":"2024-216R","EPOCH":"2025-11-28T16:17:52.817856","MEAN_MOTION":15.27639971,"ECCENTRICITY":0.00014521,"INCLINATION":43.0001,"RA_OF_ASC_NODE":114.018,"ARG_OF_PERICENTER":253.0368,"MEAN_ANOMALY":107.0325,"EPHEMERIS_TYPE":0,"CLASSIFICATION_TYPE":"U","NORAD_CAT_ID":62047,"ELEMENT_SET_NO":999,"REV_AT_EPOCH":5834,"BSTAR":0.0014293393,"MEAN_MOTION_DOT":0.00039353,"MEAN_MOTION_DDOT":0},{"OBJECT_NAME":"STARLINK-32599","OBJECT_ID":"2024-216S","EPOCH":"2025-11-29T01:48:22.171104","MEAN_MOTION":15.27590648,"ECCENTRICITY":0.0002054,"INCLINATION":42.9955,"RA_OF_ASC_NODE":111.8272,"ARG_OF_PERICENTER":274.2661,"MEAN_ANOMALY":85.7956,"EPHEMERIS_TYPE":0,"CLASSIFICATION_TYPE":"U","NORAD_CAT_ID":62048,"ELEMENT_SET_NO":999,"REV_AT_EPOCH":5840,"BSTAR":0.00086625,"MEAN_MOTION_DOT":0.0002366,"MEAN_MOTION_DDOT":0},{"OBJECT_NAME":"STARLINK-32473","OBJECT_ID":"2024-216T","EPOCH":"2025-11-28T18:57:58.611744","MEAN_MOTION":15.27604222,"ECCENTRICITY":0.0001817,"INCLINATION":43,"RA_OF_ASC_NODE":106.2097,"ARG_OF_PERICENTER":276.9215,"MEAN_ANOMALY":83.143,"EPHEMERIS_TYPE":0,"CLASSIFICATION_TYPE":"U","NORAD_CAT_ID":62049,"ELEMENT_SET_NO":999,"REV_AT_EPOCH":5728,"BSTAR":0.0011505,"MEAN_MOTION_DOT":0.00031556,"MEAN_MOTION_DDOT":0}]
